[
    {
        "OBJECT_NAME": "SHIJIAN-16 (SJ-16)",
        "OBJECT_ID": "2013-057A",
        "EPOCH": "2026-05-02T12:36:12.526272",
        "MEAN_MOTION": 14.92492694,
        "ECCENTRICITY": 0.0016462,
        "INCLINATION": 74.9712,
        "RA_OF_ASC_NODE": 83.1554,
        "ARG_OF_PERICENTER": 336.2161,
        "MEAN_ANOMALY": 23.8264,
        "EPHEMERIS_TYPE": 0,
        "CLASSIFICATION_TYPE": "U",
        "NORAD_CAT_ID": 39358,
        "ELEMENT_SET_NO": 999,
        "REV_AT_EPOCH": 67953,
        "BSTAR": 0.00016684,
        "MEAN_MOTION_DOT": 1.687e-05,
        "MEAN_MOTION_DDOT": 0
    },
    {
        "OBJECT_NAME": "SL-4 R/B",
        "OBJECT_ID": "2014-021B",
        "EPOCH": "2026-05-02T08:32:57.629184",
        "MEAN_MOTION": 15.40877645,
        "ECCENTRICITY": 0.009234,
        "INCLINATION": 51.6059,
        "RA_OF_ASC_NODE": 75.1085,
        "ARG_OF_PERICENTER": 299.303,
        "MEAN_ANOMALY": 59.8751,
        "EPHEMERIS_TYPE": 0,
        "CLASSIFICATION_TYPE": "U",
        "NORAD_CAT_ID": 39679,
        "ELEMENT_SET_NO": 999,
        "REV_AT_EPOCH": 66454,
        "BSTAR": 0.00031971,
        "MEAN_MOTION_DOT": 0.00015117,
        "MEAN_MOTION_DDOT": 0
    },
    {
        "OBJECT_NAME": "ALOS-2",
        "OBJECT_ID": "2014-029A",
        "EPOCH": "2026-05-02T13:18:38.727360",
        "MEAN_MOTION": 14.79484943,
        "ECCENTRICITY": 0.000165,
        "INCLINATION": 97.9213,
        "RA_OF_ASC_NODE": 220.3709,
        "ARG_OF_PERICENTER": 84.7527,
        "MEAN_ANOMALY": 275.3873,
        "EPHEMERIS_TYPE": 0,
        "CLASSIFICATION_TYPE": "U",
        "NORAD_CAT_ID": 39766,
        "ELEMENT_SET_NO": 999,
        "REV_AT_EPOCH": 64483,
        "BSTAR": 0.00026184,
        "MEAN_MOTION_DOT": 1.905e-05,
        "MEAN_MOTION_DDOT": 0
    },
    {
        "OBJECT_NAME": "YAOGAN-29",
        "OBJECT_ID": "2015-069A",
        "EPOCH": "2026-05-02T12:01:52.569696",
        "MEAN_MOTION": 14.83048905,
        "ECCENTRICITY": 0.000215,
        "INCLINATION": 98.0062,
        "RA_OF_ASC_NODE": 151.0559,
        "ARG_OF_PERICENTER": 129.1635,
        "MEAN_ANOMALY": 230.977,
        "EPHEMERIS_TYPE": 0,
        "CLASSIFICATION_TYPE": "U",
        "NORAD_CAT_ID": 41038,
        "ELEMENT_SET_NO": 999,
        "REV_AT_EPOCH": 56385,
        "BSTAR": 0.00013373,
        "MEAN_MOTION_DOT": 1.034e-05,
        "MEAN_MOTION_DDOT": 0
    },
    {
        "OBJECT_NAME": "ASTRO-H (HITOMI)",
        "OBJECT_ID": "2016-012A",
        "EPOCH": "2026-05-02T08:52:22.639872",
        "MEAN_MOTION": 15.10316053,
        "ECCENTRICITY": 0.0009418,
        "INCLINATION": 31.0009,
        "RA_OF_ASC_NODE": 10.0461,
        "ARG_OF_PERICENTER": 153.0048,
        "MEAN_ANOMALY": 207.1082,
        "EPHEMERIS_TYPE": 0,
        "CLASSIFICATION_TYPE": "U",
        "NORAD_CAT_ID": 41337,
        "ELEMENT_SET_NO": 999,
        "REV_AT_EPOCH": 56035,
        "BSTAR": 0.00018783,
        "MEAN_MOTION_DOT": 3.252e-05,
        "MEAN_MOTION_DDOT": 0
    },
    {
        "OBJECT_NAME": "HXMT (HUIYAN)",
        "OBJECT_ID": "2017-034A",
        "EPOCH": "2026-05-02T08:17:53.586240",
        "MEAN_MOTION": 15.18055444,
        "ECCENTRICITY": 0.0032408,
        "INCLINATION": 43.0143,
        "RA_OF_ASC_NODE": 78.2122,
        "ARG_OF_PERICENTER": 216.4496,
        "MEAN_ANOMALY": 143.4146,
        "EPHEMERIS_TYPE": 0,
        "CLASSIFICATION_TYPE": "U",
        "NORAD_CAT_ID": 42758,
        "ELEMENT_SET_NO": 999,
        "REV_AT_EPOCH": 49069,
        "BSTAR": 0.00028575,
        "MEAN_MOTION_DOT": 5.766e-05,
        "MEAN_MOTION_DDOT": 0
    },
    {
        "OBJECT_NAME": "SAOCOM 1A",
        "OBJECT_ID": "2018-076A",
        "EPOCH": "2026-05-02T11:58:25.679712",
        "MEAN_MOTION": 14.8216208,
        "ECCENTRICITY": 0.0001596,
        "INCLINATION": 97.8888,
        "RA_OF_ASC_NODE": 309.9099,
        "ARG_OF_PERICENTER": 89.4395,
        "MEAN_ANOMALY": 270.7001,
        "EPHEMERIS_TYPE": 0,
        "CLASSIFICATION_TYPE": "U",
        "NORAD_CAT_ID": 43641,
        "ELEMENT_SET_NO": 999,
        "REV_AT_EPOCH": 40933,
        "BSTAR": 0.00010186,
        "MEAN_MOTION_DOT": 7.59e-06,
        "MEAN_MOTION_DDOT": 0
    },
    {
        "OBJECT_NAME": "H-2A R/B",
        "OBJECT_ID": "2018-084L",
        "EPOCH": "2026-05-02T04:29:43.788768",
        "MEAN_MOTION": 15.43468327,
        "ECCENTRICITY": 0.002383,
        "INCLINATION": 98.8644,
        "RA_OF_ASC_NODE": 351.0845,
        "ARG_OF_PERICENTER": 194.0553,
        "MEAN_ANOMALY": 166.003,
        "EPHEMERIS_TYPE": 0,
        "CLASSIFICATION_TYPE": "U",
        "NORAD_CAT_ID": 43682,
        "ELEMENT_SET_NO": 999,
        "REV_AT_EPOCH": 41402,
        "BSTAR": 0.00046119,
        "MEAN_MOTION_DOT": 0.00020778,
        "MEAN_MOTION_DDOT": 0
    },
    {
        "OBJECT_NAME": "SAOCOM 1B",
        "OBJECT_ID": "2020-059A",
        "EPOCH": "2026-05-02T12:43:28.054848",
        "MEAN_MOTION": 14.82152236,
        "ECCENTRICITY": 0.0001537,
        "INCLINATION": 97.8884,
        "RA_OF_ASC_NODE": 309.0339,
        "ARG_OF_PERICENTER": 83.5093,
        "MEAN_ANOMALY": 276.6295,
        "EPHEMERIS_TYPE": 0,
        "CLASSIFICATION_TYPE": "U",
        "NORAD_CAT_ID": 46265,
        "ELEMENT_SET_NO": 999,
        "REV_AT_EPOCH": 30672,
        "BSTAR": 3.7441e-05,
        "MEAN_MOTION_DOT": 2.46e-06,
        "MEAN_MOTION_DDOT": 0
    },
    {
        "OBJECT_NAME": "CSS (TIANHE)",
        "OBJECT_ID": "2021-035A",
        "EPOCH": "2026-05-02T11:41:42.249120",
        "MEAN_MOTION": 15.63173931,
        "ECCENTRICITY": 0.0005738,
        "INCLINATION": 41.4673,
        "RA_OF_ASC_NODE": 240.181,
        "ARG_OF_PERICENTER": 316.5586,
        "MEAN_ANOMALY": 43.4802,
        "EPHEMERIS_TYPE": 0,
        "CLASSIFICATION_TYPE": "U",
        "NORAD_CAT_ID": 48274,
        "ELEMENT_SET_NO": 999,
        "REV_AT_EPOCH": 28602,
        "BSTAR": 0.00026765,
        "MEAN_MOTION_DOT": 0.00024924,
        "MEAN_MOTION_DDOT": 0
    },
    {
        "OBJECT_NAME": "COSMOS 2550",
        "OBJECT_ID": "2021-056A",
        "EPOCH": "2026-05-02T13:47:08.412288",
        "MEAN_MOTION": 15.33827716,
        "ECCENTRICITY": 0.0008389,
        "INCLINATION": 67.1409,
        "RA_OF_ASC_NODE": 237.8816,
        "ARG_OF_PERICENTER": 269.4004,
        "MEAN_ANOMALY": 90.619,
        "EPHEMERIS_TYPE": 0,
        "CLASSIFICATION_TYPE": "U",
        "NORAD_CAT_ID": 48865,
        "ELEMENT_SET_NO": 999,
        "REV_AT_EPOCH": 27172,
        "BSTAR": 2.6065e-06,
        "MEAN_MOTION_DOT": -1.06e-06,
        "MEAN_MOTION_DDOT": 0
    },
    {
        "OBJECT_NAME": "CZ-2C R/B",
        "OBJECT_ID": "2022-058K",
        "EPOCH": "2026-05-02T03:02:32.356896",
        "MEAN_MOTION": 15.58347432,
        "ECCENTRICITY": 0.0037593,
        "INCLINATION": 50.1881,
        "RA_OF_ASC_NODE": 42.5637,
        "ARG_OF_PERICENTER": 70.2971,
        "MEAN_ANOMALY": 290.2051,
        "EPHEMERIS_TYPE": 0,
        "CLASSIFICATION_TYPE": "U",
        "NORAD_CAT_ID": 52794,
        "ELEMENT_SET_NO": 999,
        "REV_AT_EPOCH": 21845,
        "BSTAR": 0.00067886,
        "MEAN_MOTION_DOT": 0.00054229,
        "MEAN_MOTION_DDOT": 0
    },
    {
        "OBJECT_NAME": "CZ-2C R/B",
        "OBJECT_ID": "2022-132E",
        "EPOCH": "2026-05-02T07:04:51.620160",
        "MEAN_MOTION": 15.66819914,
        "ECCENTRICITY": 0.0013308,
        "INCLINATION": 97.2927,
        "RA_OF_ASC_NODE": 127.4444,
        "ARG_OF_PERICENTER": 242.0378,
        "MEAN_ANOMALY": 117.9536,
        "EPHEMERIS_TYPE": 0,
        "CLASSIFICATION_TYPE": "U",
        "NORAD_CAT_ID": 54039,
        "ELEMENT_SET_NO": 999,
        "REV_AT_EPOCH": 19875,
        "BSTAR": 0.00052538,
        "MEAN_MOTION_DOT": 0.00055796,
        "MEAN_MOTION_DDOT": 0
    }
]