SHIJIAN-16 (SJ-16)      
1 39358U 13057A   26122.52514498  .00001687  00000+0  16684-3 0  9994
2 39358  74.9712  83.1554 0016462 336.2161  23.8264 14.92492694679532
SL-4 R/B                
1 39679U 14021B   26122.35622256  .00015117  00000+0  31971-3 0  9994
2 39679  51.6059  75.1085 0092340 299.3030  59.8751 15.40877645664549
ALOS-2                  
1 39766U 14029A   26122.55461490  .00001905  00000+0  26184-3 0  9992
2 39766  97.9213 220.3709 0001650  84.7527 275.3873 14.79484943644835
YAOGAN-29               
1 41038U 15069A   26122.50130289  .00001034  00000+0  13373-3 0  9995
2 41038  98.0062 151.0559 0002150 129.1635 230.9770 14.83048905563851
ASTRO-H (HITOMI)        
1 41337U 16012A   26122.36970648  .00003252  00000+0  18783-3 0  9995
2 41337  31.0009  10.0461 0009418 153.0048 207.1082 15.10316053560352
HXMT (HUIYAN)           
1 42758U 17034A   26122.34575910  .00005766  00000+0  28575-3 0  9991
2 42758  43.0143  78.2122 0032408 216.4496 143.4146 15.18055444490692
SAOCOM 1A               
1 43641U 18076A   26122.49890833  .00000759  00000+0  10186-3 0  9996
2 43641  97.8888 309.9099 0001596  89.4395 270.7001 14.82162080409334
H-2A R/B                
1 43682U 18084L   26122.18731237  .00020778  00000+0  46119-3 0  9996
2 43682  98.8644 351.0845 0023830 194.0553 166.0030 15.43468327414023
SAOCOM 1B               
1 46265U 20059A   26122.53018582  .00000246  00000+0  37441-4 0  9998
2 46265  97.8884 309.0339 0001537  83.5093 276.6295 14.82152236306729
CSS (TIANHE)            
1 48274U 21035A   26122.48729455  .00024924  00000+0  26765-3 0  9992
2 48274  41.4673 240.1810 0005738 316.5586  43.4802 15.63173931286023
COSMOS 2550             
1 48865U 21056A   26122.57440292 -.00000106  00000+0  26065-5 0  9992
2 48865  67.1409 237.8816 0008389 269.4004  90.6190 15.33827716271725
CZ-2C R/B               
1 52794U 22058K   26122.12676339  .00054229  00000+0  67886-3 0  9993
2 52794  50.1881  42.5637 0037593  70.2971 290.2051 15.58347432218453
CZ-2C R/B               
1 54039U 22132E   26122.29504190  .00055796  00000+0  52538-3 0  9991
2 54039  97.2927 127.4444 0013308 242.0378 117.9536 15.66819914198758
